P/2012 F2 (PANSTARRS),e,14.7021,226.9884,33.3236,6.335122,0.0618118,0.54119417,212.6194,09/09.0/2022,2000,g 12.0,4.0
# From MPEC 2022-ED3
P/2012 G1 (PANSTARRS),e,12.1733,283.2771,266.1030,4.164855,0.1159589,0.32947248,82.1945,09/09.0/2022,2000,g 15.0,4.0
# From MPC 80898
P/2012 K3 (Gibbs),e,13.1909,125.8177,172.2397,3.627952,0.1426303,0.42272824,159.5813,09/09.0/2022,2000,g 15.0,4.0
# From MPC 88326
P/2012 NJ (La Sagra),e,84.6008,315.5776,338.3809,8.465393,0.0400160,0.84682285,149.5783,09/09.0/2022,2000,g 14.5,4.0
# From MPC 81470
P/2012 O1 (McNaught),e,7.4277,91.9410,238.3125,3.541521,0.1478834,0.59439193,190.1903,09/09.0/2022,2000,g 17.5,4.0
# From MPC 80899
P/2012 O2 (McNaught),e,24.4734,120.6844,183.4735,3.625822,0.1427560,0.53217859,174.4556,09/09.0/2022,2000,g 17.0,4.0
# From MPC 82320
P/2012 T2 (PANSTARRS),e,12.5659,73.7155,310.6858,5.729441,0.0718680,0.16220018,245.7923,09/09.0/2022,2000,g 10.0,4.0
# From MPC 80900
P/2012 T3 (PANSTARRS),e,9.5604,114.3787,195.5310,6.151091,0.0646064,0.61686507,244.0890,09/09.0/2022,2000,g 15.0,4.0
# From MPC 82720
P/2012 U2 (PANSTARRS),e,10.7595,185.3243,228.2463,7.133257,0.0517335,0.49970389,185.5137,09/09.0/2022,2000,g 12.5,4.0
# From MPC 84024
P/2012 US27 (Siding Spring),e,39.3660,49.2019,0.8165,5.165307,0.0839576,0.64817033,295.0753,09/09.0/2022,2000,g 13.5,4.0
# From MPC 82721
P/2012 WA34 (Lemmon-PANSTARRS),e,6.0802,93.5771,356.4886,4.685770,0.0971701,0.34437692,330.6354,09/09.0/2022,2000,g 13.5,4.0
# From MPC 82721
P/2013 AL76 (Catalina),e,144.8638,146.0044,27.0462,6.498675,0.0594931,0.68613714,212.2339,09/09.0/2022,2000,g 16.0,4.0
# From MPEC 2022-K19
P/2013 EW90,e,31.7919,160.2932,346.1038,4.113206,0.1181499,0.19465026,67.5415,09/09.0/2022,2000,g 14.3,4.0
# From MPC 91612
P/2013 G1 (Kowalski),e,5.4590,221.3232,51.5375,6.896028,0.0544259,0.51152295,173.8808,09/09.0/2022,2000,g 11.0,4.0
# From MPC 84025
P/2013 G4 (PANSTARRS),e,5.9161,339.6366,214.6372,4.439254,0.1053754,0.40929625,8.6059,09/09.0/2022,2000,g 15.0,4.0
# From MPC 91613
P/2013 J2 (McNaught),e,15.5152,289.3628,37.8489,6.222908,0.0634913,0.65747642,209.2577,09/09.0/2022,2000,g 13.0,4.0
# From MPC 86229
P/2013 N3 (PANSTARRS),e,2.1739,17.4671,323.9631,7.394278,0.0490185,0.59316563,153.1721,09/09.0/2022,2000,g 13.0,4.0
# From MPC 85834
P/2013 N5 (PANSTARRS),e,23.4609,187.1552,176.9343,6.797159,0.0556177,0.73251667,186.3708,09/09.0/2022,2000,g 17.0,4.0
# From MPC 85834
P/2013 P1 (PANSTARRS),e,18.7246,160.5926,138.2453,8.580313,0.0392147,0.60488965,136.4377,09/09.0/2022,2000,g 12.0,4.0
# From MPC 94671
P/2013 R3 (Catalina-PANSTARRS),e,0.8648,341.9785,11.2817,3.032368,0.1866513,0.27556608,255.8178,09/09.0/2022,2000,g 14.0,4.0
# From unp
P/2013 R3-A (Catalina-PANSTARRS),e,0.8642,341.9453,11.3207,3.032226,0.1866645,0.27553572,255.8587,09/09.0/2022,2000,g  9.0,4.0
# From MPEC 2015-M77
P/2013 R3-B (Catalina-PANSTARRS),e,0.8655,342.0012,11.2555,3.032446,0.1866442,0.27558100,255.7960,09/09.0/2022,2000,g  9.0,4.0
# From MPC 85835
P/2013 T1 (PANSTARRS),e,24.3030,10.0803,346.1554,5.857417,0.0695256,0.62429044,230.8175,09/09.0/2022,2000,g 16.5,4.0
# From MPC 86643
P/2013 T2 (Schwartz),e,9.4577,0.8002,345.5722,3.491578,0.1510676,0.50114956,153.0437,09/09.0/2022,2000,g 16.0,4.0
# From MPC 91613
P/2013 W1 (PANSTARRS),e,4.6961,117.8420,1.2375,3.487892,0.1513072,0.59280615,110.2711,09/09.0/2022,2000,g 17.5,4.0
# From MPC101095
P/2013 YG46 (Spacewatch),e,7.8575,48.8362,242.5951,3.274045,0.1663708,0.45466751,340.1556,09/09.0/2022,2000,g 10.0,4.0
# From MPC 89728
P/2014 A2 (Hill),e,24.5418,106.6313,356.1508,5.927411,0.0682978,0.64554370,222.3762,09/09.0/2022,2000,g 15.0,4.0
# From MPC 92981
P/2014 A3 (PANSTARRS),e,13.7150,229.9766,214.0714,4.609816,0.0995815,0.24679911,337.5965,09/09.0/2022,2000,g 12.0,4.0
# From MPEC 2022-HC2
C/2014 B1 (Schwartz),e,28.4109,161.4208,345.6274,3961,0.0000040,0.99759079,0.0000,09/06.0850/2017,2000,g  4.0,4.0
# From MPC102095
P/2014 C1 (TOTAS),e,2.6930,167.8120,23.8975,3.033559,0.1865415,0.45062990,231.7877,09/09.0/2022,2000,g 15.5,4.0
# From MPEC 2022-P82
C/2014 F3 (Sheppard-Trujillo),e,6.5527,326.4939,4.3537,14.66887,0.0175432,0.61104117,8.2028,09/09.0/2022,2000,g  6.0,4.0
# From MPC 98560
P/2014 L2 (NEOWISE),e,5.1994,149.3470,182.7091,6.304843,0.0622576,0.64805641,184.9812,09/09.0/2022,2000,g 12.0,4.0
# From MPC 90769
P/2014 L3 (Hill),e,6.2699,115.4889,178.7016,8.176807,0.0421530,0.77293946,126.1270,09/09.0/2022,2000,g 16.0,4.0
# From MPC 91614
P/2014 M4 (PANSTARRS),e,3.3418,263.1972,148.0182,5.869285,0.0693149,0.59539839,194.8871,09/09.0/2022,2000,g 15.0,4.0
# From MPEC 2022-K19
P/2014 MG4 (Spacewatch-PANSTARRS),e,9.3678,311.7305,299.0575,5.013100,0.0878101,0.25900074,295.9343,09/09.0/2022,2000,g  9.5,4.0
# From MPC 98560
P/2014 O3 (PANSTARRS),e,7.7979,87.6422,204.7689,7.574686,0.0472778,0.38477781,144.9021,09/09.0/2022,2000,g 10.5,4.0
# From MPEC 2022-RD9
C/2014 OG392 (PANSTARRS),e,9.0329,145.7983,254.2773,12.24982,0.0229884,0.18611787,6.3891,09/09.0/2022,2000,g  6.0,4.0
# From MPC 91616
P/2014 U4 (PANSTARRS),e,6.4292,11.8844,347.8182,3.508294,0.1499892,0.46491089,85.8488,09/09.0/2022,2000,g 18.0,4.0
# From MPEC 2022-RD9
C/2014 UN271 (Bernardinelli-Bernstein),h,01/23.3507/2031,95.4302,189.8981,326.2735,1.000375,10.943234,2000,2.5,3.2
# From MPC 95211
P/2014 V1 (PANSTARRS),e,22.5270,166.2002,177.6424,5.479627,0.0768383,0.53449382,213.7624,09/09.0/2022,2000,g 14.0,4.0
# From MPC 93586
P/2014 W1 (PANSTARRS),e,8.8364,246.2366,152.1488,4.465584,0.1044448,0.38922924,311.2936,09/09.0/2022,2000,g 15.5,4.0
# From MPC105542
P/2014 W4 (PANSTARRS),e,15.2824,33.3846,67.6191,6.589983,0.0582610,0.35306436,142.4384,09/09.0/2022,2000,g 11.0,4.0
# From MPC 94281
P/2014 X1 (Elenin),e,26.0413,61.5543,33.8791,6.205610,0.0637569,0.70936301,179.0523,09/09.0/2022,2000,g 15.0,4.0
# From MPC 92275
P/2015 A3 (PANSTARRS),e,172.5390,277.2939,249.4204,7.814153,0.0451213,0.85045730,124.5766,09/09.0/2022,2000,g 20.0,4.0
# From MPC 99270
P/2015 B1 (PANSTARRS),e,18.0495,352.9334,188.8896,9.492441,0.0337006,0.36666602,86.1268,09/09.0/2022,2000,g  8.5,4.0
# From MPC109141
P/2015 B4 (Lemmon-PANSTARRS),e,1.7626,266.0524,227.2909,8.519064,0.0396384,0.56038215,110.0245,09/09.0/2022,2000,g 11.0,4.0
# From MPC101096
P/2015 C1 (TOTAS-Gibbs),e,13.9127,348.7958,178.1373,6.576249,0.0584436,0.56071466,157.5638,09/09.0/2022,2000,g 12.5,4.0
# From MPC109141
P/2015 D5 (Kowalski),e,20.5283,74.0688,39.6893,8.956075,0.0367729,0.48966622,113.3874,09/09.0/2022,2000,g  9.0,4.0
# From MPC 96866
P/2015 D6 (Lemmon-PANSTARRS),e,20.2044,45.8817,125.0386,7.137383,0.0516887,0.36128194,135.9933,09/09.0/2022,2000,g 10.5,4.0
# From MPEC 2021-P47
P/2015 HG16 (PANSTARRS),e,18.8193,57.6476,47.6633,4.770452,0.0945942,0.35227554,286.9185,09/09.0/2022,2000,g 12.5,4.0
# From MPC 95213
P/2015 K5 (PANSTARRS),e,39.9441,134.2029,106.3368,6.725812,0.0565050,0.55209004,150.1047,09/09.0/2022,2000,g 13.5,4.0
# From MPC107684
P/2015 M2 (PANSTARRS),e,3.9700,86.5849,225.9298,7.241183,0.0505813,0.18008000,129.1107,09/09.0/2022,2000,g  8.5,4.0
# From MPEC 2021-P47
C/2015 O1 (PANSTARRS),h,02/20.1822/2018,127.1880,299.8346,89.5570,1.001485,3.722367,2000,6.5,4.0
# From MPC 99819
P/2015 P4 (PANSTARRS),e,8.7175,104.6964,280.6439,6.046900,0.0662834,0.58564055,160.4693,09/09.0/2022,2000,g 14.0,4.0
# From MPEC 2022-K19
P/2015 PD229 (Cameron-ISON),e,2.0254,342.6512,352.6605,7.191158,0.0511100,0.32776291,131.8194,09/09.0/2022,2000,g 11.5,2.0
# From MPC 96867
P/2015 Q2 (Pimentel),e,146.5429,228.5180,244.6274,7.353133,0.0494306,0.75057810,126.5008,09/09.0/2022,2000,g 15.5,4.0
# From MPC 98562
P/2015 R1 (PANSTARRS),e,22.6954,48.3381,300.5606,5.880335,0.0691196,0.63435701,181.5969,09/09.0/2022,2000,g 14.0,4.0
# From MPC 95734
P/2015 R2 (PANSTARRS),e,15.4854,168.5970,149.8440,4.485892,0.1037363,0.45283337,274.0708,09/09.0/2022,2000,g 14.5,4.0
# From MPC 96280
P/2015 T3 (PANSTARRS),e,13.0937,120.5019,178.6330,4.326181,0.1095335,0.50818108,359.9227,12/21.0/2014,2000,g 14.0,4.0
# From MPC102953
P/2015 TO19 (Lemmon-PANSTARRS),e,6.5003,321.6341,89.1589,4.552607,0.1014644,0.35919011,241.1598,09/09.0/2022,2000,g 14.0,4.0
# From MPC110080
P/2015 TP200 (LINEAR),e,8.7806,7.0200,82.4525,7.265859,0.0503238,0.53597922,107.7796,09/09.0/2022,2000,g 11.0,4.0
# From MPC115881
C/2015 V1 (PANSTARRS),e,139.2303,197.1417,179.6843,2249,0.0000092,0.99809688,0.0000,12/16.4296/2017,2000,g  6.5,4.0
# From MPC115881
C/2015 VL62 (Lemmon-Yeung-PANSTARRS),h,08/28.2493/2017,165.8245,95.2124,129.0194,1.001907,2.725086,2000,8.0,4.0
# From MPC101098
P/2015 W2 (Catalina),e,11.6091,294.1706,117.5304,7.291080,0.0500629,0.63509301,126.7785,09/09.0/2022,2000,g 13.0,4.0
# From MPEC 2022-RD9
P/2015 X1 (PANSTARRS),e,12.1518,161.7577,218.7409,3.636819,0.1421090,0.41925761,0.3410,09/09.0/2022,2000,g 16.0,4.0
# From MPEC 2022-OB6
C/2015 XY1 (Lemmon),h,04/25.7600/2018,148.8516,281.5821,196.1434,1.000083,7.924005,2000,5.5,4.0
# From MPEC 2022-OB6
P/2015 X3 (PANSTARRS),e,24.3994,77.2764,306.7351,5.004077,0.0880477,0.43993111,227.6043,09/09.0/2022,2000,g 15.0,4.0
# From MPC119995
C/2015 X5 (PANSTARRS),e,124.3162,122.3152,27.5519,14595,0.0000006,0.99953446,0.0000,12/27.3811/2017,2000,g  7.5,4.0
# From MPC115881
P/2015 X6 (PANSTARRS),e,4.5647,106.9353,329.7859,2.752657,0.2158122,0.17302650,149.3263,09/09.0/2022,2000,g 16.0,4.0
# From MPEC 2022-O08
C/2016 A1 (PANSTARRS),e,121.2125,128.1773,10.1035,10011,0.0000010,0.99946893,0.0000,11/20.9502/2017,2000,g  6.0,4.0
# From MPC100282
P/2016 A2 (Christensen),e,26.4033,291.6177,141.2957,4.753512,0.0951004,0.27077828,251.5427,09/09.0/2022,2000,g 11.5,4.0
# From MPEC 2022-OB6
P/2016 A3 (PANSTARRS),e,8.5106,187.2291,340.9452,7.881696,0.0445425,0.38605792,87.3770,09/09.0/2022,2000,g 10.0,4.0
# From MPC102098
P/2016 A7 (PANSTARRS),e,16.6030,221.4972,352.5486,5.034776,0.0872436,0.56440216,208.7555,09/09.0/2022,2000,g 16.0,4.0
# From MPC109143
P/2016 BA14 (PANSTARRS),e,18.8967,180.5138,351.9546,3.026295,0.1872135,0.66477670,84.0209,09/09.0/2022,2000,g 21.0,4.0
# From MPEC 2021-P47
